SL-4 R/B                
1 39679U 14021B   25352.33841162  .00011604  00000+0  27712-3 0  9990
2 39679  51.6090  13.3831 0101297 166.4131 193.9615 15.36802194643756
ALOS-2                  
1 39766U 14029A   25352.55947201  .00001810  00000+0  24910-3 0  9995
2 39766  97.9225  87.3230 0001370  96.8901 263.2467 14.79477181624870
YAOGAN-29               
1 41038U 15069A   25352.62264804  .00000354  00000+0  50388-4 0  9995
2 41038  98.0215  15.8137 0000373 190.7353 169.3853 14.82888260543867
ASTRO-H (HITOMI)        
1 41337U 16012A   25352.57575169  .00002696  00000+0  15877-3 0  9993
2 41337  30.9976 159.7466 0009678 237.5309 122.4394 15.09388181539962
HXMT (HUIYAN)           
1 42758U 17034A   25352.65369772  .00004875  00000+0  25622-3 0  9996
2 42758  43.0137 106.8081 0031130  82.2554 278.1827 15.16300438470236
CZ-2C R/B               
1 43521U 18054D   25352.50352998  .00102225  00000+0  64191-3 0  9996
2 43521  35.1317 141.7738 0015116 202.8849 157.1212 15.75281114415964
SAOCOM 1A               
1 43641U 18076A   25352.61280051  .00000637  00000+0  86510-4 0  9999
2 43641  97.8839 176.9487 0001448  80.6550 279.4827 14.82164845389357
H-2A R/B                
1 43682U 18084L   25352.48478386  .00016993  00000+0  45775-3 0  9997
2 43682  98.8766 187.7551 0026951 306.4309  53.4446 15.37574034393281
SAOCOM 1B               
1 46265U 20059A   25352.64406448  .00000191  00000+0  30530-4 0  9997
2 46265  97.8834 176.0798 0001393  85.4119 274.7254 14.82142897286740
CSS (TIANHE)            
1 48274U 21035A   25352.28684694  .00023377  00000+0  29030-3 0  9998
2 48274  41.4683 343.0261 0007725  79.3286 280.8422 15.59417882264893
COSMOS 2550             
1 48865U 21056A   25352.65994183 -.00000099  00000+0  28126-5 0  9999
2 48865  67.1431 286.0265 0008357 269.0718  90.9479 15.33829481251033
CZ-2C R/B               
1 52794U 22058K   25352.48524090  .00023076  00000+0  41195-3 0  9993
2 52794  50.1911  14.2431 0045044 222.2982 137.4509 15.48776327197528
