CCSDS_OMM_VERS = 2.0
CREATION_DATE  = 
ORIGINATOR     = 

OBJECT_NAME    = SL-4 R/B
OBJECT_ID      = 2014-021B
CENTER_NAME    = EARTH
REF_FRAME      = TEME
TIME_SYSTEM    = UTC
MEAN_ELEMENT_THEORY = SGP/SGP4

EPOCH          = 2025-12-18T08:07:18.763968
MEAN_MOTION    = 15.36802194
ECCENTRICITY   = .01012976
INCLINATION    = 51.6090
RA_OF_ASC_NODE = 13.3831
ARG_OF_PERICENTER = 166.4131
MEAN_ANOMALY   = 193.9615

EPHEMERIS_TYPE = 0
CLASSIFICATION_TYPE = U
NORAD_CAT_ID   = 39679
ELEMENT_SET_NO = 999
REV_AT_EPOCH   = 64375
BSTAR          = .27712487E-3
MEAN_MOTION_DOT = .11604E-3
MEAN_MOTION_DDOT = 0

CCSDS_OMM_VERS = 2.0
CREATION_DATE  = 
ORIGINATOR     = 

OBJECT_NAME    = ALOS-2
OBJECT_ID      = 2014-029A
CENTER_NAME    = EARTH
REF_FRAME      = TEME
TIME_SYSTEM    = UTC
MEAN_ELEMENT_THEORY = SGP/SGP4

EPOCH          = 2025-12-18T13:25:38.381664
MEAN_MOTION    = 14.79477181
ECCENTRICITY   = .00013702
INCLINATION    = 97.9225
RA_OF_ASC_NODE = 87.3230
ARG_OF_PERICENTER = 96.8901
MEAN_ANOMALY   = 263.2467

EPHEMERIS_TYPE = 0
CLASSIFICATION_TYPE = U
NORAD_CAT_ID   = 39766
ELEMENT_SET_NO = 999
REV_AT_EPOCH   = 62487
BSTAR          = .24909877E-3
MEAN_MOTION_DOT = .181E-4
MEAN_MOTION_DDOT = 0

CCSDS_OMM_VERS = 2.0
CREATION_DATE  = 
ORIGINATOR     = 

OBJECT_NAME    = YAOGAN-29
OBJECT_ID      = 2015-069A
CENTER_NAME    = EARTH
REF_FRAME      = TEME
TIME_SYSTEM    = UTC
MEAN_ELEMENT_THEORY = SGP/SGP4

EPOCH          = 2025-12-18T14:56:36.790656
MEAN_MOTION    = 14.82888260
ECCENTRICITY   = .0000373
INCLINATION    = 98.0215
RA_OF_ASC_NODE = 15.8137
ARG_OF_PERICENTER = 190.7353
MEAN_ANOMALY   = 169.3853

EPHEMERIS_TYPE = 0
CLASSIFICATION_TYPE = U
NORAD_CAT_ID   = 41038
ELEMENT_SET_NO = 999
REV_AT_EPOCH   = 54386
BSTAR          = .50388492E-4
MEAN_MOTION_DOT = .354E-5
MEAN_MOTION_DDOT = 0

CCSDS_OMM_VERS = 2.0
CREATION_DATE  = 
ORIGINATOR     = 

OBJECT_NAME    = ASTRO-H (HITOMI)
OBJECT_ID      = 2016-012A
CENTER_NAME    = EARTH
REF_FRAME      = TEME
TIME_SYSTEM    = UTC
MEAN_ELEMENT_THEORY = SGP/SGP4

EPOCH          = 2025-12-18T13:49:04.946016
MEAN_MOTION    = 15.09388181
ECCENTRICITY   = .00096783
INCLINATION    = 30.9976
RA_OF_ASC_NODE = 159.7466
ARG_OF_PERICENTER = 237.5309
MEAN_ANOMALY   = 122.4394

EPHEMERIS_TYPE = 0
CLASSIFICATION_TYPE = U
NORAD_CAT_ID   = 41337
ELEMENT_SET_NO = 999
REV_AT_EPOCH   = 53996
BSTAR          = .15876949E-3
MEAN_MOTION_DOT = .2696E-4
MEAN_MOTION_DDOT = 0

CCSDS_OMM_VERS = 2.0
CREATION_DATE  = 
ORIGINATOR     = 

OBJECT_NAME    = HXMT (HUIYAN)
OBJECT_ID      = 2017-034A
CENTER_NAME    = EARTH
REF_FRAME      = TEME
TIME_SYSTEM    = UTC
MEAN_ELEMENT_THEORY = SGP/SGP4

EPOCH          = 2025-12-18T15:41:19.483008
MEAN_MOTION    = 15.16300438
ECCENTRICITY   = .00311303
INCLINATION    = 43.0137
RA_OF_ASC_NODE = 106.8081
ARG_OF_PERICENTER = 82.2554
MEAN_ANOMALY   = 278.1827

EPHEMERIS_TYPE = 0
CLASSIFICATION_TYPE = U
NORAD_CAT_ID   = 42758
ELEMENT_SET_NO = 999
REV_AT_EPOCH   = 47023
BSTAR          = .2562162E-3
MEAN_MOTION_DOT = .4875E-4
MEAN_MOTION_DDOT = 0

CCSDS_OMM_VERS = 2.0
CREATION_DATE  = 
ORIGINATOR     = 

OBJECT_NAME    = CZ-2C R/B
OBJECT_ID      = 2018-054D
CENTER_NAME    = EARTH
REF_FRAME      = TEME
TIME_SYSTEM    = UTC
MEAN_ELEMENT_THEORY = SGP/SGP4

EPOCH          = 2025-12-18T12:05:04.990272
MEAN_MOTION    = 15.75281114
ECCENTRICITY   = .00151168
INCLINATION    = 35.1317
RA_OF_ASC_NODE = 141.7738
ARG_OF_PERICENTER = 202.8849
MEAN_ANOMALY   = 157.1212

EPHEMERIS_TYPE = 0
CLASSIFICATION_TYPE = U
NORAD_CAT_ID   = 43521
ELEMENT_SET_NO = 999
REV_AT_EPOCH   = 41596
BSTAR          = .64190964E-3
MEAN_MOTION_DOT = .102225E-2
MEAN_MOTION_DDOT = 0

CCSDS_OMM_VERS = 2.0
CREATION_DATE  = 
ORIGINATOR     = 

OBJECT_NAME    = SAOCOM 1A
OBJECT_ID      = 2018-076A
CENTER_NAME    = EARTH
REF_FRAME      = TEME
TIME_SYSTEM    = UTC
MEAN_ELEMENT_THEORY = SGP/SGP4

EPOCH          = 2025-12-18T14:42:25.964064
MEAN_MOTION    = 14.82164845
ECCENTRICITY   = .0001448
INCLINATION    = 97.8839
RA_OF_ASC_NODE = 176.9487
ARG_OF_PERICENTER = 80.6550
MEAN_ANOMALY   = 279.4827

EPHEMERIS_TYPE = 0
CLASSIFICATION_TYPE = U
NORAD_CAT_ID   = 43641
ELEMENT_SET_NO = 999
REV_AT_EPOCH   = 38935
BSTAR          = .8650973E-4
MEAN_MOTION_DOT = .637E-5
MEAN_MOTION_DDOT = 0

CCSDS_OMM_VERS = 2.0
CREATION_DATE  = 
ORIGINATOR     = 

OBJECT_NAME    = H-2A R/B
OBJECT_ID      = 2018-084L
CENTER_NAME    = EARTH
REF_FRAME      = TEME
TIME_SYSTEM    = UTC
MEAN_ELEMENT_THEORY = SGP/SGP4

EPOCH          = 2025-12-18T11:38:05.325504
MEAN_MOTION    = 15.37574034
ECCENTRICITY   = .00269514
INCLINATION    = 98.8766
RA_OF_ASC_NODE = 187.7551
ARG_OF_PERICENTER = 306.4309
MEAN_ANOMALY   = 53.4446

EPHEMERIS_TYPE = 0
CLASSIFICATION_TYPE = U
NORAD_CAT_ID   = 43682
ELEMENT_SET_NO = 999
REV_AT_EPOCH   = 39328
BSTAR          = .45774666E-3
MEAN_MOTION_DOT = .16993E-3
MEAN_MOTION_DDOT = 0

CCSDS_OMM_VERS = 2.0
CREATION_DATE  = 
ORIGINATOR     = 

OBJECT_NAME    = SAOCOM 1B
OBJECT_ID      = 2020-059A
CENTER_NAME    = EARTH
REF_FRAME      = TEME
TIME_SYSTEM    = UTC
MEAN_ELEMENT_THEORY = SGP/SGP4

EPOCH          = 2025-12-18T15:27:27.171072
MEAN_MOTION    = 14.82142897
ECCENTRICITY   = .00013938
INCLINATION    = 97.8834
RA_OF_ASC_NODE = 176.0798
ARG_OF_PERICENTER = 85.4119
MEAN_ANOMALY   = 274.7254

EPHEMERIS_TYPE = 0
CLASSIFICATION_TYPE = U
NORAD_CAT_ID   = 46265
ELEMENT_SET_NO = 999
REV_AT_EPOCH   = 28674
BSTAR          = .30529601E-4
MEAN_MOTION_DOT = .191E-5
MEAN_MOTION_DDOT = 0

CCSDS_OMM_VERS = 2.0
CREATION_DATE  = 
ORIGINATOR     = 

OBJECT_NAME    = CSS (TIANHE)
OBJECT_ID      = 2021-035A
CENTER_NAME    = EARTH
REF_FRAME      = TEME
TIME_SYSTEM    = UTC
MEAN_ELEMENT_THEORY = SGP/SGP4

EPOCH          = 2025-12-18T06:53:03.575616
MEAN_MOTION    = 15.59417882
ECCENTRICITY   = .00077258
INCLINATION    = 41.4683
RA_OF_ASC_NODE = 343.0261
ARG_OF_PERICENTER = 79.3286
MEAN_ANOMALY   = 280.8422

EPHEMERIS_TYPE = 0
CLASSIFICATION_TYPE = U
NORAD_CAT_ID   = 48274
ELEMENT_SET_NO = 999
REV_AT_EPOCH   = 26489
BSTAR          = .29030456E-3
MEAN_MOTION_DOT = .23377E-3
MEAN_MOTION_DDOT = 0

CCSDS_OMM_VERS = 2.0
CREATION_DATE  = 
ORIGINATOR     = 

OBJECT_NAME    = COSMOS 2550
OBJECT_ID      = 2021-056A
CENTER_NAME    = EARTH
REF_FRAME      = TEME
TIME_SYSTEM    = UTC
MEAN_ELEMENT_THEORY = SGP/SGP4

EPOCH          = 2025-12-18T15:50:18.974112
MEAN_MOTION    = 15.33829481
ECCENTRICITY   = .0008357
INCLINATION    = 67.1431
RA_OF_ASC_NODE = 286.0265
ARG_OF_PERICENTER = 269.0718
MEAN_ANOMALY   = 90.9479

EPHEMERIS_TYPE = 0
CLASSIFICATION_TYPE = U
NORAD_CAT_ID   = 48865
ELEMENT_SET_NO = 999
REV_AT_EPOCH   = 25103
BSTAR          = .28126E-5
MEAN_MOTION_DOT = -.99E-6
MEAN_MOTION_DDOT = 0

CCSDS_OMM_VERS = 2.0
CREATION_DATE  = 
ORIGINATOR     = 

OBJECT_NAME    = CZ-2C R/B
OBJECT_ID      = 2022-058K
CENTER_NAME    = EARTH
REF_FRAME      = TEME
TIME_SYSTEM    = UTC
MEAN_ELEMENT_THEORY = SGP/SGP4

EPOCH          = 2025-12-18T11:38:44.813760
MEAN_MOTION    = 15.48776327
ECCENTRICITY   = .0045044
INCLINATION    = 50.1911
RA_OF_ASC_NODE = 14.2431
ARG_OF_PERICENTER = 222.2982
MEAN_ANOMALY   = 137.4509

EPHEMERIS_TYPE = 0
CLASSIFICATION_TYPE = U
NORAD_CAT_ID   = 52794
ELEMENT_SET_NO = 999
REV_AT_EPOCH   = 19752
BSTAR          = .41195427E-3
MEAN_MOTION_DOT = .23076E-3
MEAN_MOTION_DDOT = 0

